{"type": "FeatureCollection", "features": [ {"type": "Feature", "properties": {"norad_id": 31538, "name": "FENGYUN 1C DEB", "group": "fengyun-1c-debris", "lat": -81.4101394426623, "lon": -81.0894207642394, "alt_km": 566.1278720583105, "timestamp": "2025-12-02T23:34:15.799270+00:00", "meta": {"OBJECT_NAME": "FENGYUN 1C DEB", "OBJECT_ID": "1999-025BYD", "EPOCH": "2025-11-18T21:37:36.814656", "MEAN_MOTION": 14.96885168, "ECCENTRICITY": 0.00235351, "INCLINATION": 98.2479, "RA_OF_ASC_NODE": 190.2519, "ARG_OF_PERICENTER": 356.6213, "MEAN_ANOMALY": 3.4844, "EPHEMERIS_TYPE": 0, "CLASSIFICATION_TYPE": "U", "NORAD_CAT_ID": 31538, "ELEMENT_SET_NO": 999, "REV_AT_EPOCH": 66646, "BSTAR": 0.0047226763, "MEAN_MOTION_DOT": 0.00054817, "MEAN_MOTION_DDOT": 0}, "tle": {"line1": "1 31538U 99025BYD 25322.90112054  .00054817  00000+0  47227-2 0  9999", "line2": "2 31538  98.2479 190.2519 0023535 356.6213   3.4844 14.96885168666469"}}, "geometry": {"type": "Point", "coordinates": [-81.0894207642394, -81.4101394426623]}}, {"type": "Feature", "properties": {"norad_id": 31540, "name": "FENGYUN 1C DEB", "group": "fengyun-1c-debris", "lat": 26.636713951283113, "lon": -39.99663061718634, "alt_km": 800.491924632991, "timestamp": "2025-12-02T23:34:15.799280+00:00", "meta": {"OBJECT_NAME": "FENGYUN 1C DEB", "OBJECT_ID": "1999-025BYF", "EPOCH": "2025-11-30T16:47:12.586272", "MEAN_MOTION": 14.65204922, "ECCENTRICITY": 0.01774904, "INCLINATION": 99.0563, "RA_OF_ASC_NODE": 132.9014, "ARG_OF_PERICENTER": 338.1522, "MEAN_ANOMALY": 21.2175, "EPHEMERIS_TYPE": 0, "CLASSIFICATION_TYPE": "U", "NORAD_CAT_ID": 31540, "ELEMENT_SET_NO": 999, "REV_AT_EPOCH": 98125, "BSTAR": 0.00061965123, "MEAN_MOTION_DOT": 4.14e-05, "MEAN_MOTION_DDOT": 0}, "tle": {"line1": "1 31540U 99025BYF 25334.69945123  .00004140  00000+0  61965-3 0  9992", "line2": "2 31540  99.0563 132.9014 0177490 338.1522  21.2175 14.65204922981257"}}, "geometry": {"type": "Point", "coordinates": [-39.99663061718634, 26.636713951283113]}}, {"type": "Feature", "properties": {"norad_id": 31541, "name": "FENGYUN 1C DEB", "group": "fengyun-1c-debris", "lat": -41.578746104917165, "lon": 126.4930167329232, "alt_km": 634.5023365517936, "timestamp": "2025-12-02T23:34:15.799290+00:00", "meta": {"OBJECT_NAME": "FENGYUN 1C DEB", "OBJECT_ID": "1999-025BYG", "EPOCH": "2025-12-01T08:30:59.377824", "MEAN_MOTION": 14.68534389, "ECCENTRICITY": 0.00787181, "INCLINATION": 98.9786, "RA_OF_ASC_NODE": 116.6445, "ARG_OF_PERICENTER": 275.4502, "MEAN_ANOMALY": 83.7725, "EPHEMERIS_TYPE": 0, "CLASSIFICATION_TYPE": "U", "NORAD_CAT_ID": 31541, "ELEMENT_SET_NO": 999, "REV_AT_EPOCH": 98256, "BSTAR": 0.0014195856, "MEAN_MOTION_DOT": 8.577e-05, "MEAN_MOTION_DDOT": 0}, "tle": {"line1": "1 31541U 99025BYG 25335.35485391  .00008577  00000+0  14196-2 0  9994", "line2": "2 31541  98.9786 116.6445 0078718 275.4502  83.7725 14.68534389982569"}}, "geometry": {"type": "Point", "coordinates": [126.4930167329232, -41.578746104917165]}}, {"type": "Feature", "properties": {"norad_id": 31542, "name": "FENGYUN 1C DEB", "group": "fengyun-1c-debris", "lat": 3.4552020146906135, "lon": 30.543038064728567, "alt_km": 839.7397170830063, "timestamp": "2025-12-02T23:34:15.799300+00:00", "meta": {"OBJECT_NAME": "FENGYUN 1C DEB", "OBJECT_ID": "1999-025BYH", "EPOCH": "2025-12-02T10:03:05.254848", "MEAN_MOTION": 14.22699156, "ECCENTRICITY": 0.0047037, "INCLINATION": 98.733, "RA_OF_ASC_NODE": 30.5165, "ARG_OF_PERICENTER": 236.5507, "MEAN_ANOMALY": 123.117, "EPHEMERIS_TYPE": 0, "CLASSIFICATION_TYPE": "U", "NORAD_CAT_ID": 31542, "ELEMENT_SET_NO": 999, "REV_AT_EPOCH": 95793, "BSTAR": 0.0016592, "MEAN_MOTION_DOT": 3.715e-05, "MEAN_MOTION_DDOT": 0}, "tle": {"line1": "1 31542U 99025BYH 25336.41881082  .00003715  00000+0  16592-2 0  9991", "line2": "2 31542  98.7330  30.5165 0047037 236.5507 123.1170 14.22699156957939"}}, "geometry": {"type": "Point", "coordinates": [30.543038064728567, 3.4552020146906135]}}, {"type": "Feature", "properties": {"norad_id": 31544, "name": "FENGYUN 1C DEB", "group": "fengyun-1c-debris", "lat": 29.409258009751962, "lon": 23.33311290671731, "alt_km": 843.9872998494884, "timestamp": "2025-12-02T23:34:15.799310+00:00", "meta": {"OBJECT_NAME": "FENGYUN 1C DEB", "OBJECT_ID": "1999-025BYK", "EPOCH": "2025-11-29T13:55:50.953440", "MEAN_MOTION": 14.14279568, "ECCENTRICITY": 0.00313575, "INCLINATION": 98.831, "RA_OF_ASC_NODE": 24.9985, "ARG_OF_PERICENTER": 307.4599, "MEAN_ANOMALY": 52.3723, "EPHEMERIS_TYPE": 0, "CLASSIFICATION_TYPE": "U", "NORAD_CAT_ID": 31544, "ELEMENT_SET_NO": 999, "REV_AT_EPOCH": 95571, "BSTAR": 0.00072227693, "MEAN_MOTION_DOT": 1.342e-05, "MEAN_MOTION_DDOT": 0}, "tle": {"line1": "1 31544U 99025BYK 25333.58045085  .00001342  00000+0  72228-3 0  9996", "line2": "2 31544  98.8310  24.9985 0031357 307.4599  52.3723 14.14279568955717"}}, "geometry": {"type": "Point", "coordinates": [23.33311290671731, 29.409258009751962]}}, {"type": "Feature", "properties": {"norad_id": 31546, "name": "FENGYUN 1C DEB", "group": "fengyun-1c-debris", "lat": -59.112940216258565, "lon": -146.77136877137102, "alt_km": 827.9256002632392, "timestamp": "2025-12-02T23:34:15.799320+00:00", "meta": {"OBJECT_NAME": "FENGYUN 1C DEB", "OBJECT_ID": "1999-025BYM", "EPOCH": "2025-12-02T03:45:12.580704", "MEAN_MOTION": 14.12994209, "ECCENTRICITY": 0.01468756, "INCLINATION": 98.2454, "RA_OF_ASC_NODE": 46.4962, "ARG_OF_PERICENTER": 167.0924, "MEAN_ANOMALY": 193.4075, "EPHEMERIS_TYPE": 0, "CLASSIFICATION_TYPE": "U", "NORAD_CAT_ID": 31546, "ELEMENT_SET_NO": 999, "REV_AT_EPOCH": 94639, "BSTAR": 0.002173763, "MEAN_MOTION_DOT": 4.454e-05, "MEAN_MOTION_DDOT": 0}, "tle": {"line1": "1 31546U 99025BYM 25336.15639561  .00004454  00000+0  21738-2 0  9998", "line2": "2 31546  98.2454  46.4962 0146875 167.0924 193.4075 14.12994209946395"}}, "geometry": {"type": "Point", "coordinates": [-146.77136877137102, -59.112940216258565]}}, {"type": "Feature", "properties": {"norad_id": 31547, "name": "FENGYUN 1C DEB", "group": "fengyun-1c-debris", "lat": 17.029236289064485, "lon": 17.631301113381525, "alt_km": 819.5783536671861, "timestamp": "2025-12-02T23:34:15.799357+00:00", "meta": {"OBJECT_NAME": "FENGYUN 1C DEB", "OBJECT_ID": "1999-025BYN", "EPOCH": "2025-12-02T08:18:10.666656", "MEAN_MOTION": 14.23031642, "ECCENTRICITY": 0.0053178, "INCLINATION": 99.0877, "RA_OF_ASC_NODE": 19.785, "ARG_OF_PERICENTER": 282.8408, "MEAN_ANOMALY": 76.6831, "EPHEMERIS_TYPE": 0, "CLASSIFICATION_TYPE": "U", "NORAD_CAT_ID": 31547, "ELEMENT_SET_NO": 999, "REV_AT_EPOCH": 63869, "BSTAR": 0.00178, "MEAN_MOTION_DOT": 4.024e-05, "MEAN_MOTION_DDOT": 0}, "tle": {"line1": "1 31547U 99025BYN 25336.34595679  .00004024  00000+0  17800-2 0  9999", "line2": "2 31547  99.0877  19.7850 0053178 282.8408  76.6831 14.23031642638697"}}, "geometry": {"type": "Point", "coordinates": [17.631301113381525, 17.029236289064485]}}, {"type": "Feature", "properties": {"norad_id": 31550, "name": "FENGYUN 1C DEB", "group": "fengyun-1c-debris", "lat": -43.884717273475594, "lon": -15.198166394313372, "alt_km": 632.1956648196319, "timestamp": "2025-12-02T23:34:15.799368+00:00", "meta": {"OBJECT_NAME": "FENGYUN 1C DEB", "OBJECT_ID": "1999-025BYR", "EPOCH": "2025-12-01T22:45:30.629952", "MEAN_MOTION": 14.40097154, "ECCENTRICITY": 0.01906473, "INCLINATION": 98.3112, "RA_OF_ASC_NODE": 335.7153, "ARG_OF_PERICENTER": 305.5544, "MEAN_ANOMALY": 52.8, "EPHEMERIS_TYPE": 0, "CLASSIFICATION_TYPE": "U", "NORAD_CAT_ID": 31550, "ELEMENT_SET_NO": 999, "REV_AT_EPOCH": 65299, "BSTAR": 0.0010669046, "MEAN_MOTION_DOT": 4.123e-05, "MEAN_MOTION_DDOT": 0}, "tle": {"line1": "1 31550U 99025BYR 25335.94827118  .00004123  00000+0  10669-2 0  9990", "line2": "2 31550  98.3112 335.7153 0190647 305.5544  52.8000 14.40097154652991"}}, "geometry": {"type": "Point", "coordinates": [-15.198166394313372, -43.884717273475594]}}, {"type": "Feature", "properties": {"norad_id": 31552, "name": "FENGYUN 1C DEB", "group": "fengyun-1c-debris", "lat": 77.4997587934432, "lon": -38.13790394188389, "alt_km": 692.1290359730629, "timestamp": "2025-12-02T23:34:15.799378+00:00", "meta": {"OBJECT_NAME": "FENGYUN 1C DEB", "OBJECT_ID": "1999-025BYT", "EPOCH": "2025-11-30T14:37:50.555424", "MEAN_MOTION": 14.45288601, "ECCENTRICITY": 0.0086373, "INCLINATION": 98.621, "RA_OF_ASC_NODE": 96.2726, "ARG_OF_PERICENTER": 58.268, "MEAN_ANOMALY": 302.6892, "EPHEMERIS_TYPE": 0, "CLASSIFICATION_TYPE": "U", "NORAD_CAT_ID": 31552, "ELEMENT_SET_NO": 999, "REV_AT_EPOCH": 95701, "BSTAR": 0.00311, "MEAN_MOTION_DOT": 0.00011399, "MEAN_MOTION_DDOT": 0}, "tle": {"line1": "1 31552U 99025BYT 25334.60961291  .00011399  00000+0  31100-2 0  9991", "line2": "2 31552  98.6210  96.2726 0086373  58.2680 302.6892 14.45288601957013"}}, "geometry": {"type": "Point", "coordinates": [-38.13790394188389, 77.4997587934432]}}, {"type": "Feature", "properties": {"norad_id": 31553, "name": "FENGYUN 1C DEB", "group": "fengyun-1c-debris", "lat": -8.624894395941622, "lon": -149.97658325435262, "alt_km": 784.1005391255267, "timestamp": "2025-12-02T23:34:15.799388+00:00", "meta": {"OBJECT_NAME": "FENGYUN 1C DEB", "OBJECT_ID": "1999-025BYU", "EPOCH": "2025-12-01T15:30:06.804576", "MEAN_MOTION": 14.30003265, "ECCENTRICITY": 0.00311567, "INCLINATION": 99.005, "RA_OF_ASC_NODE": 30.0201, "ARG_OF_PERICENTER": 133.4764, "MEAN_ANOMALY": 19.8318, "EPHEMERIS_TYPE": 0, "CLASSIFICATION_TYPE": "U", "NORAD_CAT_ID": 31553, "ELEMENT_SET_NO": 999, "REV_AT_EPOCH": 95751, "BSTAR": 0.0016381732, "MEAN_MOTION_DOT": 4.204e-05, "MEAN_MOTION_DDOT": 0}, "tle": {"line1": "1 31553U 99025BYU 25335.64591209  .00004204  00000+0  16382-2 0  9997", "line2": "2 31553  99.0050  30.0201 0031156 133.4764  19.8318 14.30003265957513"}}, "geometry": {"type": "Point", "coordinates": [-149.97658325435262, -8.624894395941622]}}]}